PROMETHEUS 2-3          
1 41855U 16067H   25267.14915438  .00141145  00000+0  16452-2 0  9995
2 41855  98.0489 132.8560 0003201 188.0387 172.0818 15.61184936486952
CORVUS BC2              
1 42846U 17042X   25266.94562368  .00008859  00000+0  64924-3 0  9999
2 42846  97.3835  74.5246 0012985 304.2219  55.7776 15.03688285447014
CORVUS BC1              
1 42847U 17042Y   25266.97900142  .00007274  00000+0  53079-3 0  9998
2 42847  97.3855  75.1774 0010984 279.9010  80.0976 15.03930704447046
MIRATA                  
1 43015U 17073C   25267.27038255  .00323754  00000+0  22658-2 0  9993
2 43015  97.5166 168.1158 0050690  57.3271 303.2866 15.71584941427415
MAKERSAT 0              
1 43016U 17073D   25267.19335153  .00026738  00000+0  99077-3 0  9994
2 43016  97.4999 144.4667 0139927 129.4337 231.9380 15.18802731425907
SIRION PATHFINDER-2     
1 43759U 18099B   25267.17968297  .00009542  00000+0  57506-3 0  9991
2 43759  97.4654 317.5560 0010767 133.5273 226.6853 15.10936450372409
CORVUS BC4              
1 43767U 18099K   25267.18933805  .00008772  00000+0  55337-3 0  9992
2 43767  97.4483 312.8775 0008665 186.1899 173.9225 15.09308741372238
SPACEBEE-7              
1 43816U 18099BL  25267.20189033  .00069825  00000+0  15375-2 0  9999
2 43816  97.4847 339.8567 0005725 101.5348 258.6543 15.43689611373207
SHIELDS 1               
1 43850U 18104B   25267.18897432  .00070055  00000+0  59787-3 0  9993
2 43850  85.0117 321.0868 0007250  99.5702 260.6385 15.69240619378122
DUCHIFAT-3              
1 44854U 19089C   25266.36491842  .00142709  00000+0  17814-2 0  9995
2 44854  36.9386  37.6672 0006092  61.3310 298.8062 15.58459775319457
M2 PATHFINDER           
1 45727U 20037E   25267.23079233  .00004891  00000+0  36989-3 0  9997
2 45727  97.8179  90.7348 0011068 341.2474  18.8341 15.02773289285521
NETSAT-4                
1 46504U 20068U   25267.23113620  .00024510  00000+0  76614-3 0  9993
2 46504  97.8554 251.3367 0007162 166.2361 193.9077 15.33134285274876
NETSAT-3                
1 46505U 20068V   25266.93597490  .00027318  00000+0  89481-3 0  9996
2 46505  97.8558 249.7135 0006289 177.5856 182.5416 15.31616885274777
NETSAT-1                
1 46506U 20068W   25266.94840741  .00019937  00000+0  77309-3 0  9992
2 46506  97.8594 246.7305 0005248 198.5755 161.5292 15.26160047274574
NETSAT-2                
1 46507U 20068X   25266.91407389  .00031027  00000+0  97192-3 0  9993
2 46507  97.8556 250.4423 0004313 184.8529 175.2670 15.33030758274761
WILDTRACKCUBE-SIMBA     
1 47941U 21022K   25267.26768289  .00068927  00000+0  11117-2 0  9996
2 47941  97.4082 174.6197 0004713 288.5197  71.5543 15.52672717249707
LEDSAT                  
1 49069U 21073D   25267.20986788  .00395019  00000+0  15130-2 0  9999
2 49069  97.3747 354.6150 0002389 338.3899  21.7270 15.86463064228167
GREENCUBE (IO-117)      
1 53109U 22080E   25262.37691399 -.00000003  00000+0  00000+0 0  9996
2 53109  70.1547  32.4043 0008567 347.3364  12.7080  6.42583624 74667
SITRO-AIS 5 (KATYS)     
1 57176U 23091L   25267.22330367  .00018501  00000+0  81672-3 0  9990
2 57176  97.5470 324.4130 0012132 322.9677  37.0720 15.21739249123785
SITRO-AIS 6 (CHIRKIN)   
1 57192U 23091AC  25267.22071337  .00011103  00000+0  49753-3 0  9992
2 57192  97.5468 324.3945 0011817 324.7780  35.2673 15.21350374123782
SITRO-AIS 8 (ANOKHIN)   
1 57193U 23091AD  25267.21676017  .00018746  00000+0  79111-3 0  9999
2 57193  97.5463 325.1461 0011390 321.4546  38.5876 15.23275694123830
SITRO-AIS 7 (FARTUSHNIY)
1 57194U 23091AE  25267.24983123  .00011093  00000+0  49900-3 0  9993
2 57194  97.5466 324.3446 0011760 325.6127  34.4346 15.21220032123785
SITRO-AIS 10 (BURDAEV)  
1 57199U 23091AK  25267.21347861  .00023863  00000+0  89906-3 0  9996
2 57199  97.5474 328.0613 0007154 301.0017  59.0518 15.27062258124015
SITRO-AIS 9 (SHCHUKIN)  
1 57201U 23091AM  25267.24503552  .00024337  00000+0  92265-3 0  9993
2 57201  97.5474 327.9702 0007175 301.5854  58.4683 15.26851879124013
SITRO-AIS 12 (SMIRENNIY)
1 57204U 23091AQ  25267.21292770  .00025601  00000+0  96426-3 0  9998
2 57204  97.5482 328.2670 0007023 293.5461  66.5039 15.27057573124025
SITRO-AIS 11 (SHEFFER)  
1 57208U 23091AU  25267.21625565  .00023543  00000+0  88083-3 0  9997
2 57208  97.5481 328.3919 0006960 293.8076  66.2432 15.27297779124038
ROBUSTA-1E (ENSO)       
1 58470U 23185J   25265.87349204  .00212868  00000+0  15756-2 0  9992
2 58470  97.3609 345.3295 0002509  57.5685 302.5821 15.72293598101478
SITRO-AIS 25            
1 59066U 24039R   25267.33770544  .00013332  00000+0  11038-2 0  9995
2 59066  95.3874  52.7416 0153419 175.1973 185.0767 14.90116994 85084
SITRO-AIS 26            
1 59067U 24039S   25267.30713935  .00013597  00000+0  11297-2 0  9994
2 59067  95.3882  52.6651 0153600 175.5856 184.6765 14.89965780 85075
SITRO-AIS 27            
1 59068U 24039T   25267.34559666  .00014578  00000+0  12021-2 0  9994
2 59068  95.3875  52.8532 0152889 174.6151 185.6763 14.90306622 85091
SITRO-AIS 28            
1 59071U 24039U   25267.32980288  .00013368  00000+0  11021-2 0  9999
2 59071  95.3878  52.8751 0152702 174.6105 185.6809 14.90348536 85095
GRBBETA                 
1 60237U 24128C   25267.17911822  .00009509  00000+0  68272-3 0  9998
2 60237  61.9913  67.6373 0056803  80.3685 280.3817 15.03578061 66224
OOV-CUBE (TUBSAT-30)    
1 60240U 24128F   25266.95218834  .00006260  00000+0  48822-3 0  9990
2 60240  61.9953  72.7456 0058125  77.5728 283.1858 15.00861588 66127
ROBUSTA-3A (MEDITERRAN*)
1 60243U 24128J   25266.65868230  .00015672  00000+0  10391-2 0  9997
2 60243  61.9881  67.2275 0056198  74.5030 286.2259 15.06181581 66199
LASARSAT                
1 62391U 24247Q   25266.39956414  .00034191  00000+0  11846-2 0  9991
2 62391  44.9793 302.2704 0008110 314.1109  45.9106 15.29290706 42244
CROCUBE                 
1 62394U 24247T   25267.15932769  .00036175  00000+0  12366-2 0  9998
2 62394  44.9757 297.7545 0008806 324.3945  35.6351 15.29696307 42369
